[{"OBJECT_NAME":"DOORY-SAT","OBJECT_ID":"2023-188A","EPOCH":"2026-03-09T23:27:23.333760","MEAN_MOTION":14.80342987,"ECCENTRICITY":0.00094423,"INCLINATION":46.9821,"RA_OF_ASC_NODE":60.4458,"ARG_OF_PERICENTER":285.1315,"MEAN_ANOMALY":74.8534,"EPHEMERIS_TYPE":0,"CLASSIFICATION_TYPE":"U","NORAD_CAT_ID":58500,"ELEMENT_SET_NO":999,"REV_AT_EPOCH":12229,"BSTAR":0.00032429984,"MEAN_MOTION_DOT":2.298e-5,"MEAN_MOTION_DDOT":0},{"OBJECT_NAME":"CAPE-1","OBJECT_ID":"2007-012P","EPOCH":"2026-03-09T20:17:13.017120","MEAN_MOTION":14.6458579,"ECCENTRICITY":0.0084516,"INCLINATION":98.4372,"RA_OF_ASC_NODE":40.7493,"ARG_OF_PERICENTER":22.1581,"MEAN_ANOMALY":338.3239,"EPHEMERIS_TYPE":0,"CLASSIFICATION_TYPE":"U","NORAD_CAT_ID":31130,"ELEMENT_SET_NO":999,"REV_AT_EPOCH":381,"BSTAR":0.00052998933,"MEAN_MOTION_DOT":2.91e-5,"MEAN_MOTION_DDOT":0}]
